0 TRANSIT 5B-1 DEB
1 38522U 63038R   13284.39786149  .00009704  00000-0  10451-1 0  3586
2 38522 090.1232 313.0672 0105849 159.6403 267.0296 13.70885217498168
0 TRANSIT 5B-1 DEB
1 38522U 63038R   13288.33787157  .00010863  00000-0  11694-1 0  3593
2 38522 090.1242 313.1229 0104905 148.3551 271.6069 13.70947032498702
0 TRANSIT 5B-1 DEB
1 38522U 63038R   13291.33067396  .00009488  00000-0  10211-1 0  3600
2 38522 090.1243 313.1630 0104227 139.6922 282.3046 13.70998848499112
0 TRANSIT 5B-1 DEB
1 38522U 63038R   13292.35279175  .00009126  00000-0  98206-2 0  3614
2 38522 090.1245 313.1770 0103849 136.7349 286.9946 13.71016668499255
0 TRANSIT 5B-1 DEB
1 38522U 63038R   13295.04584355  .00009868  00000-0  10618-1 0  3626
2 38522 090.1235 313.2072 0102962 128.7516 259.1280 13.71062287499624
